{
  "type": "FeatureCollection",
  "features": [
    {
      "type": "Feature",
      "properties": {
        "norad_id": 34299,
        "name": "COSMOS 2251 DEB",
        "group": "cosmos-2251-debris",
        "lat": -72.86898539754382,
        "lon": -113.84682444036578,
        "alt_km": 298.4404438877955,
        "timestamp": "2025-12-21T03:56:51.226763+00:00",
        "meta_object_name": "COSMOS 2251 DEB",
        "meta_object_id": "1993-036MV",
        "meta_epoch": "2025-12-20T14:45:08.199936",
        "meta_mean_motion": 15.93932603,
        "meta_eccentricity": 0.0011077,
        "meta_inclination": 73.9685,
        "meta_ra_of_asc_node": 316.3411,
        "meta_arg_of_pericenter": 95.9955,
        "meta_mean_anomaly": 264.2543,
        "meta_ephemeris_type": 0,
        "meta_classification_type": "U",
        "meta_norad_cat_id": 34299,
        "meta_element_set_no": 999,
        "meta_rev_at_epoch": 89135,
        "meta_bstar": 0.005837,
        "meta_mean_motion_dot": 0.02072373,
        "meta_mean_motion_ddot": 0.0026109,
        "tle_line1": "1 34299U 93036MV  25354.61467824  .02072373  26109-2  58370-2 0  9994",
        "tle_line2": "2 34299  73.9685 316.3411 0011077  95.9955 264.2543 15.93932603891357"
      },
      "geometry": {
        "type": "Point",
        "coordinates": [
          -113.84682444036578,
          -72.86898539754382
        ]
      }
    },
    {
      "type": "Feature",
      "properties": {
        "norad_id": 34301,
        "name": "COSMOS 2251 DEB",
        "group": "cosmos-2251-debris",
        "lat": -50.78662902044346,
        "lon": -9.465074713379318,
        "alt_km": 613.5809091187666,
        "timestamp": "2025-12-21T03:56:51.226772+00:00",
        "meta_object_name": "COSMOS 2251 DEB",
        "meta_object_id": "1993-036MX",
        "meta_epoch": "2025-12-20T14:26:15.420768",
        "meta_mean_motion": 14.84895685,
        "meta_eccentricity": 0.001056,
        "meta_inclination": 74.0049,
        "meta_ra_of_asc_node": 151.0723,
        "meta_arg_of_pericenter": 212.9737,
        "meta_mean_anomaly": 252.7307,
        "meta_ephemeris_type": 0,
        "meta_classification_type": "U",
        "meta_norad_cat_id": 34301,
        "meta_element_set_no": 999,
        "meta_rev_at_epoch": 88517,
        "meta_bstar": 0.0019998,
        "meta_mean_motion_dot": 0.00017041,
        "meta_mean_motion_ddot": 0,
        "tle_line1": "1 34301U 93036MX  25354.60156737  .00017041  00000+0  19998-2 0  9996",
        "tle_line2": "2 34301  74.0049 151.0723 0010560 212.9737 252.7307 14.84895685885172"
      },
      "geometry": {
        "type": "Point",
        "coordinates": [
          -9.465074713379318,
          -50.78662902044346
        ]
      }
    },
    {
      "type": "Feature",
      "properties": {
        "norad_id": 34302,
        "name": "COSMOS 2251 DEB",
        "group": "cosmos-2251-debris",
        "lat": 25.98115222266214,
        "lon": 116.10722488182165,
        "alt_km": 736.1174188372433,
        "timestamp": "2025-12-21T03:56:51.226782+00:00",
        "meta_object_name": "COSMOS 2251 DEB",
        "meta_object_id": "1993-036MY",
        "meta_epoch": "2025-12-20T18:23:11.332032",
        "meta_mean_motion": 14.39357934,
        "meta_eccentricity": 0.0079235,
        "meta_inclination": 74.178,
        "meta_ra_of_asc_node": 108.8928,
        "meta_arg_of_pericenter": 321.884,
        "meta_mean_anomaly": 161.0412,
        "meta_ephemeris_type": 0,
        "meta_classification_type": "U",
        "meta_norad_cat_id": 34302,
        "meta_element_set_no": 999,
        "meta_rev_at_epoch": 87836,
        "meta_bstar": 0.00040625,
        "meta_mean_motion_dot": 1.284e-05,
        "meta_mean_motion_ddot": 0,
        "tle_line1": "1 34302U 93036MY  25354.76610338  .00001284  00000+0  40625-3 0  9990",
        "tle_line2": "2 34302  74.1780 108.8928 0079235 321.8840 161.0412 14.39357934878364"
      },
      "geometry": {
        "type": "Point",
        "coordinates": [
          116.10722488182165,
          25.98115222266214
        ]
      }
    },
    {
      "type": "Feature",
      "properties": {
        "norad_id": 34303,
        "name": "COSMOS 2251 DEB",
        "group": "cosmos-2251-debris",
        "lat": -50.542943721837645,
        "lon": -108.32340698611004,
        "alt_km": 735.5433688092644,
        "timestamp": "2025-12-21T03:56:51.226791+00:00",
        "meta_object_name": "COSMOS 2251 DEB",
        "meta_object_id": "1993-036MZ",
        "meta_epoch": "2025-12-20T18:25:23.295072",
        "meta_mean_motion": 14.54549103,
        "meta_eccentricity": 0.0135413,
        "meta_inclination": 74.0059,
        "meta_ra_of_asc_node": 272.8227,
        "meta_arg_of_pericenter": 49.1497,
        "meta_mean_anomaly": 341.7921,
        "meta_ephemeris_type": 0,
        "meta_classification_type": "U",
        "meta_norad_cat_id": 34303,
        "meta_element_set_no": 999,
        "meta_rev_at_epoch": 88079,
        "meta_bstar": 0.00092058,
        "meta_mean_motion_dot": 4.41e-05,
        "meta_mean_motion_ddot": 0,
        "tle_line1": "1 34303U 93036MZ  25354.76763073  .00004410  00000+0  92058-3 0  9997",
        "tle_line2": "2 34303  74.0059 272.8227 0135413  49.1497 341.7921 14.54549103880796"
      },
      "geometry": {
        "type": "Point",
        "coordinates": [
          -108.32340698611004,
          -50.542943721837645
        ]
      }
    },
    {
      "type": "Feature",
      "properties": {
        "norad_id": 34304,
        "name": "COSMOS 2251 DEB",
        "group": "cosmos-2251-debris",
        "lat": -72.50597889516331,
        "lon": 41.61194802887073,
        "alt_km": 695.5668686537983,
        "timestamp": "2025-12-21T03:56:51.226800+00:00",
        "meta_object_name": "COSMOS 2251 DEB",
        "meta_object_id": "1993-036NA",
        "meta_epoch": "2025-12-20T18:54:30.430080",
        "meta_mean_motion": 14.37928949,
        "meta_eccentricity": 0.0129028,
        "meta_inclination": 74.0136,
        "meta_ra_of_asc_node": 107.749,
        "meta_arg_of_pericenter": 243.9015,
        "meta_mean_anomaly": 243.6126,
        "meta_ephemeris_type": 0,
        "meta_classification_type": "U",
        "meta_norad_cat_id": 34304,
        "meta_element_set_no": 999,
        "meta_rev_at_epoch": 87412,
        "meta_bstar": 0.001016,
        "meta_mean_motion_dot": 3.352e-05,
        "meta_mean_motion_ddot": 0,
        "tle_line1": "1 34304U 93036NA  25354.78785220  .00003352  00000+0  10160-2 0  9995",
        "tle_line2": "2 34304  74.0136 107.7490 0129028 243.9015 243.6126 14.37928949874123"
      },
      "geometry": {
        "type": "Point",
        "coordinates": [
          41.61194802887073,
          -72.50597889516331
        ]
      }
    },
    {
      "type": "Feature",
      "properties": {
        "norad_id": 34307,
        "name": "COSMOS 2251 DEB",
        "group": "cosmos-2251-debris",
        "lat": 66.56648868548166,
        "lon": 78.32505647278983,
        "alt_km": 776.6273199054212,
        "timestamp": "2025-12-21T03:56:51.226810+00:00",
        "meta_object_name": "COSMOS 2251 DEB",
        "meta_object_id": "1993-036ND",
        "meta_epoch": "2025-12-20T02:41:56.366016",
        "meta_mean_motion": 13.54331363,
        "meta_eccentricity": 0.03918856,
        "meta_inclination": 74.0535,
        "meta_ra_of_asc_node": 301.2844,
        "meta_arg_of_pericenter": 130.6068,
        "meta_mean_anomaly": 251.0175,
        "meta_ephemeris_type": 0,
        "meta_classification_type": "U",
        "meta_norad_cat_id": 34307,
        "meta_element_set_no": 999,
        "meta_rev_at_epoch": 82962,
        "meta_bstar": 0.00052792829,
        "meta_mean_motion_dot": 5.69e-06,
        "meta_mean_motion_ddot": 0,
        "tle_line1": "1 34307U 93036ND  25354.11245794  .00000569  00000+0  52793-3 0  9998",
        "tle_line2": "2 34307  74.0535 301.2844 0391885 130.6068 251.0175 13.54331363829623"
      },
      "geometry": {
        "type": "Point",
        "coordinates": [
          78.32505647278983,
          66.56648868548166
        ]
      }
    },
    {
      "type": "Feature",
      "properties": {
        "norad_id": 34313,
        "name": "COSMOS 2251 DEB",
        "group": "cosmos-2251-debris",
        "lat": -48.37132482105141,
        "lon": 126.6422687126606,
        "alt_km": 518.9512158883226,
        "timestamp": "2025-12-21T03:56:51.226819+00:00",
        "meta_object_name": "COSMOS 2251 DEB",
        "meta_object_id": "1993-036NK",
        "meta_epoch": "2025-12-20T06:24:19.448928",
        "meta_mean_motion": 15.20313142,
        "meta_eccentricity": 0.00119835,
        "meta_inclination": 73.9715,
        "meta_ra_of_asc_node": 289.6581,
        "meta_arg_of_pericenter": 70.2926,
        "meta_mean_anomaly": 289.9563,
        "meta_ephemeris_type": 0,
        "meta_classification_type": "U",
        "meta_norad_cat_id": 34313,
        "meta_element_set_no": 999,
        "meta_rev_at_epoch": 89179,
        "meta_bstar": 0.0028548581,
        "meta_mean_motion_dot": 0.0006269,
        "meta_mean_motion_ddot": 0,
        "tle_line1": "1 34313U 93036NK  25354.26689177  .00062690  00000+0  28549-2 0  9992",
        "tle_line2": "2 34313  73.9715 289.6581 0011983  70.2926 289.9563 15.20313142891793"
      },
      "geometry": {
        "type": "Point",
        "coordinates": [
          126.6422687126606,
          -48.37132482105141
        ]
      }
    }
  ]
}